*******************************************************************************
Ephemeris / WWW_USER Mon Mar 24 09:18:58 2025 Pasadena, USA      / Horizons    
*******************************************************************************
Target body name: 341764 (2007 VZ326)             {source: JPL#18}
Center body name: Earth (399)                     {source: DE441}
Center-site name: Mauna Kea
*******************************************************************************
Start time      : A.D. 2019-Jan-22 04:17:00.0000 UT      
Stop  time      : A.D. 2019-Jan-22 16:49:00.0000 UT      
Step-size       : 1 minutes
*******************************************************************************
Target pole/equ : undefined
Target radii    : undefined                                                    
Center geodetic : 204.5278, 19.8260847, 4.21024   {E-lon(deg),Lat(deg),Alt(km)}
Center cylindric: 204.5278, 6006.35451, 2151.0229 {E-lon(deg),Dxy(km),Dz(km)}
Center pole/equ : ITRF93                          {East-longitude positive}
Center radii    : 6378.137, 6378.137, 6356.752 km {Equator_a, b, pole_c}       
Target primary  : Sun
Vis. interferer : MOON (R_eq= 1737.400) km        {source: DE441}
Rel. light bend : Sun                             {source: DE441}
Rel. lght bnd GM: 1.3271E+11 km^3/s^2                                          
Small-body perts: Yes                             {source: SB441-N16}
Atmos refraction: NO (AIRLESS)
RA format       : HMS
Time format     : CAL 
Calendar mode   : Mixed Julian/Gregorian
RTS-only print  : NO       
EOP file        : eop.250321.p250617                                           
EOP coverage    : DATA-BASED 1962-JAN-20 TO 2025-MAR-21. PREDICTS-> 2025-JUN-16
Units conversion: 1 au= 149597870.700 km, c= 299792.458 km/s, 1 day= 86400.0 s 
Table cut-offs 1: Elevation (-90.0deg=NO ),Airmass (>38.000=NO), Daylight (YES)
Table cut-offs 2: Solar elongation (  0.0,180.0=NO ),Local Hour Angle( 0.0=NO )
Table cut-offs 3: RA/DEC angular rate (     0.0=NO )                           
*******************************************************************************
Initial IAU76/J2000 heliocentric ecliptic osculating elements (au, days, deg.):
  EPOCH=  2458738.5 ! 2019-Sep-12.00 (TDB)         Residual RMS= .13886        
   EC= .1008373990761695   QR= 2.768240023430626   TP= 2458584.3440952813      
   OM= 228.7009686323446   W=  245.4004729743531   IN= 4.232471987434818       
  Equivalent ICRF heliocentric cartesian coordinates (au, au/d):
   X=-2.388613100272569E+00  Y= 1.431394755664809E+00  Z= 3.975078424350988E-01
  VX=-6.081658482309184E-03 VY=-8.102092841560219E-03 VZ=-3.413222734767960E-03
Asteroid physical parameters (km, seconds, rotational period in hours):        
   GM= n.a.                RAD= n.a.               ROTPER= n.a.                
   H= 16.54                G= .150                 B-V= n.a.                   
                           ALBEDO= n.a.            STYP= n.a.                  
*******************************************************************************
 Date__(UT)__HR:MN     R.A._________(ICRF)_________DEC
******************************************************
$$SOE
 2019-Jan-22 10:26  m  05 34 09.352371 +18 48 16.99329
 2019-Jan-22 10:27  m  05 34 09.333793 +18 48 16.98644
 2019-Jan-22 10:28  m  05 34 09.315219 +18 48 16.97957
 2019-Jan-22 10:29  m  05 34 09.296649 +18 48 16.97268
 2019-Jan-22 10:30  m  05 34 09.278084 +18 48 16.96578
 2019-Jan-22 10:31  m  05 34 09.259523 +18 48 16.95885
 2019-Jan-22 10:32  m  05 34 09.240967 +18 48 16.95191
 2019-Jan-22 10:33  m  05 34 09.222415 +18 48 16.94494
 2019-Jan-22 10:34  m  05 34 09.203868 +18 48 16.93796
 2019-Jan-22 10:35  m  05 34 09.185325 +18 48 16.93096
 2019-Jan-22 10:36  m  05 34 09.166786 +18 48 16.92394
 2019-Jan-22 10:37  m  05 34 09.148253 +18 48 16.91690
 2019-Jan-22 10:38  m  05 34 09.129723 +18 48 16.90984
 2019-Jan-22 10:39  m  05 34 09.111199 +18 48 16.90277
 2019-Jan-22 10:40  m  05 34 09.092679 +18 48 16.89567
 2019-Jan-22 10:41  m  05 34 09.074163 +18 48 16.88856
 2019-Jan-22 10:42  m  05 34 09.055652 +18 48 16.88143
 2019-Jan-22 10:43  m  05 34 09.037146 +18 48 16.87428
 2019-Jan-22 10:44  m  05 34 09.018645 +18 48 16.86712
 2019-Jan-22 10:45  m  05 34 09.000148 +18 48 16.85994
 2019-Jan-22 10:46  m  05 34 08.981656 +18 48 16.85273
 2019-Jan-22 10:47  m  05 34 08.963168 +18 48 16.84552
 2019-Jan-22 10:48  m  05 34 08.944686 +18 48 16.83828
 2019-Jan-22 10:49  m  05 34 08.926208 +18 48 16.83103
 2019-Jan-22 10:50  m  05 34 08.907735 +18 48 16.82375
 2019-Jan-22 10:51  m  05 34 08.889267 +18 48 16.81646
 2019-Jan-22 10:52  m  05 34 08.870803 +18 48 16.80916
 2019-Jan-22 10:53  m  05 34 08.852345 +18 48 16.80184
 2019-Jan-22 10:54  m  05 34 08.833891 +18 48 16.79450
 2019-Jan-22 10:55  m  05 34 08.815442 +18 48 16.78714
 2019-Jan-22 10:56  m  05 34 08.796998 +18 48 16.77976
 2019-Jan-22 10:57  m  05 34 08.778559 +18 48 16.77237
 2019-Jan-22 10:58  m  05 34 08.760125 +18 48 16.76496
 2019-Jan-22 10:59  m  05 34 08.741695 +18 48 16.75754
 2019-Jan-22 11:00  m  05 34 08.723271 +18 48 16.75010
 2019-Jan-22 11:01  m  05 34 08.704852 +18 48 16.74264
 2019-Jan-22 11:02  m  05 34 08.686438 +18 48 16.73517
 2019-Jan-22 11:03  m  05 34 08.668028 +18 48 16.72767
 2019-Jan-22 11:04  m  05 34 08.649624 +18 48 16.72017
 2019-Jan-22 11:05  m  05 34 08.631225 +18 48 16.71264
 2019-Jan-22 11:06  m  05 34 08.612831 +18 48 16.70511
 2019-Jan-22 11:07  m  05 34 08.594442 +18 48 16.69755
 2019-Jan-22 11:08  m  05 34 08.576058 +18 48 16.68998
 2019-Jan-22 11:09  m  05 34 08.557679 +18 48 16.68239
 2019-Jan-22 11:10  m  05 34 08.539305 +18 48 16.67479
 2019-Jan-22 11:11  m  05 34 08.520936 +18 48 16.66717
 2019-Jan-22 11:12  m  05 34 08.502573 +18 48 16.65954
 2019-Jan-22 11:13  m  05 34 08.484215 +18 48 16.65189
 2019-Jan-22 11:14  m  05 34 08.465862 +18 48 16.64422
 2019-Jan-22 11:15  m  05 34 08.447514 +18 48 16.63654
 2019-Jan-22 11:16  m  05 34 08.429171 +18 48 16.62885
 2019-Jan-22 11:17  m  05 34 08.410834 +18 48 16.62114
 2019-Jan-22 11:18  m  05 34 08.392502 +18 48 16.61341
 2019-Jan-22 11:19  m  05 34 08.374175 +18 48 16.60567
 2019-Jan-22 11:20  m  05 34 08.355853 +18 48 16.59791
 2019-Jan-22 11:21  m  05 34 08.337537 +18 48 16.59014
 2019-Jan-22 11:22  m  05 34 08.319226 +18 48 16.58236
 2019-Jan-22 11:23  m  05 34 08.300920 +18 48 16.57456
 2019-Jan-22 11:24  m  05 34 08.282620 +18 48 16.56675
 2019-Jan-22 11:25  m  05 34 08.264325 +18 48 16.55892
 2019-Jan-22 11:26  m  05 34 08.246035 +18 48 16.55108
 2019-Jan-22 11:27  m  05 34 08.227751 +18 48 16.54322
 2019-Jan-22 11:28  m  05 34 08.209472 +18 48 16.53535
 2019-Jan-22 11:29  m  05 34 08.191199 +18 48 16.52746
 2019-Jan-22 11:30  m  05 34 08.172931 +18 48 16.51956
 2019-Jan-22 11:31  m  05 34 08.154669 +18 48 16.51165
 2019-Jan-22 11:32  m  05 34 08.136412 +18 48 16.50373
 2019-Jan-22 11:33  m  05 34 08.118160 +18 48 16.49579
 2019-Jan-22 11:34  m  05 34 08.099914 +18 48 16.48783
 2019-Jan-22 11:35  m  05 34 08.081674 +18 48 16.47986
 2019-Jan-22 11:36  m  05 34 08.063439 +18 48 16.47188
 2019-Jan-22 11:37  m  05 34 08.045209 +18 48 16.46389
 2019-Jan-22 11:38  m  05 34 08.026985 +18 48 16.45588
 2019-Jan-22 11:39  m  05 34 08.008767 +18 48 16.44786
 2019-Jan-22 11:40  m  05 34 07.990554 +18 48 16.43983
 2019-Jan-22 11:41  m  05 34 07.972347 +18 48 16.43179
 2019-Jan-22 11:42  m  05 34 07.954145 +18 48 16.42373
 2019-Jan-22 11:43  m  05 34 07.935949 +18 48 16.41566
 2019-Jan-22 11:44  m  05 34 07.917759 +18 48 16.40757
 2019-Jan-22 11:45  m  05 34 07.899574 +18 48 16.39948
 2019-Jan-22 11:46  m  05 34 07.881395 +18 48 16.39137
 2019-Jan-22 11:47  m  05 34 07.863222 +18 48 16.38325
 2019-Jan-22 11:48  m  05 34 07.845054 +18 48 16.37511
 2019-Jan-22 11:49  m  05 34 07.826892 +18 48 16.36697
 2019-Jan-22 11:50  m  05 34 07.808736 +18 48 16.35881
 2019-Jan-22 11:51  m  05 34 07.790586 +18 48 16.35064
 2019-Jan-22 11:52  m  05 34 07.772441 +18 48 16.34246
 2019-Jan-22 11:53  m  05 34 07.754302 +18 48 16.33427
 2019-Jan-22 11:54  m  05 34 07.736168 +18 48 16.32607
 2019-Jan-22 11:55  m  05 34 07.718041 +18 48 16.31785
 2019-Jan-22 11:56  m  05 34 07.699919 +18 48 16.30963
 2019-Jan-22 11:57  m  05 34 07.681803 +18 48 16.30139
 2019-Jan-22 11:58  m  05 34 07.663693 +18 48 16.29314
 2019-Jan-22 11:59  m  05 34 07.645589 +18 48 16.28488
 2019-Jan-22 12:00  m  05 34 07.627490 +18 48 16.27661
 2019-Jan-22 12:01  m  05 34 07.609397 +18 48 16.26833
 2019-Jan-22 12:02  m  05 34 07.591311 +18 48 16.26003
 2019-Jan-22 12:03  m  05 34 07.573230 +18 48 16.25173
 2019-Jan-22 12:04  m  05 34 07.555155 +18 48 16.24342
 2019-Jan-22 12:05  m  05 34 07.537086 +18 48 16.23509
 2019-Jan-22 12:06  m  05 34 07.519022 +18 48 16.22676
 2019-Jan-22 12:07  m  05 34 07.500965 +18 48 16.21841
 2019-Jan-22 12:08  m  05 34 07.482914 +18 48 16.21006
 2019-Jan-22 12:09  m  05 34 07.464868 +18 48 16.20169
 2019-Jan-22 12:10  m  05 34 07.446828 +18 48 16.19332
 2019-Jan-22 12:11  m  05 34 07.428795 +18 48 16.18493
 2019-Jan-22 12:12  m  05 34 07.410767 +18 48 16.17654
 2019-Jan-22 12:13  m  05 34 07.392746 +18 48 16.16813
 2019-Jan-22 12:14  m  05 34 07.374730 +18 48 16.15972
 2019-Jan-22 12:15  m  05 34 07.356720 +18 48 16.15130
 2019-Jan-22 12:16  m  05 34 07.338717 +18 48 16.14286
 2019-Jan-22 12:17  m  05 34 07.320719 +18 48 16.13442
 2019-Jan-22 12:18  m  05 34 07.302727 +18 48 16.12597
 2019-Jan-22 12:19  m  05 34 07.284742 +18 48 16.11751
 2019-Jan-22 12:20  m  05 34 07.266762 +18 48 16.10904
 2019-Jan-22 12:21  m  05 34 07.248789 +18 48 16.10057
 2019-Jan-22 12:22  m  05 34 07.230821 +18 48 16.09208
 2019-Jan-22 12:23  m  05 34 07.212860 +18 48 16.08358
 2019-Jan-22 12:24  m  05 34 07.194905 +18 48 16.07508
 2019-Jan-22 12:25  m  05 34 07.176956 +18 48 16.06657
 2019-Jan-22 12:26  m  05 34 07.159013 +18 48 16.05805
 2019-Jan-22 12:27  m  05 34 07.141076 +18 48 16.04952
 2019-Jan-22 12:28  m  05 34 07.123145 +18 48 16.04099
